TY-42                  
1 64048U 25103A   25173.22193187  .00004744  00000-0  25756-3 0  9991
2 64048  97.4137 247.9703 0004833  33.6140 326.5398 15.14989027  5458